start=new Date('2023-02-17T00:00:00.000Z').valueOf();
sats=[{"RCS_SIZE":"LARGE","ELEMENT_SET_NO":"999","TIME_SYSTEM":"UTC","DECAY_DATE":null,"OBJECT_TYPE":"PAYLOAD","MEAN_MOTION_DOT":"0.00000827","TLE_LINE2":"2 53869  53.2167 246.8247 0000673  78.6185 281.4882 15.08850804 24133","OBJECT_NAME":"STARLINK-4810","REV_AT_EPOCH":"2413","OBJECT_ID":"2022-114BD","LAUNCH_DATE":"2022-09-19","TLE_LINE1":"1 53869U 22114BD  23047.99396849  .00000827  00000-0  69983-4 0  9990","PERIOD":"95.437","APOAPSIS":"540.178","EPHEMERIS_TYPE":"0","ARG_OF_PERICENTER":"78.6185","INCLINATION":"53.2167","NORAD_CAT_ID":"53869","SEMIMAJOR_AXIS":"6917.847","MEAN_ELEMENT_THEORY":"SGP4","RA_OF_ASC_NODE":"246.8247","ECCENTRICITY":"0.00006730","CLASSIFICATION_TYPE":"U","MEAN_ANOMALY":"281.4882","CENTER_NAME":"EARTH","EPOCH":"2023-02-16T23:51:18.877536","GP_ID":"225690850","MEAN_MOTION":"15.08850804","COUNTRY_CODE":"US","SITE":"AFETR","PERIAPSIS":"539.247","MEAN_MOTION_DDOT":"0.0000000000000","BSTAR":"0.00006998300000","REF_FRAME":"TEME","FILE":"3799250"},{"OBJECT_NAME":"STARLINK-4732","REV_AT_EPOCH":"2393","OBJECT_ID":"2022-114BE","TLE_LINE2":"2 53870  53.2107 246.9362 0001273  95.6227 201.4500 15.18937997 23937","MEAN_MOTION_DOT":"-0.01144864","DECAY_DATE":null,"OBJECT_TYPE":"PAYLOAD","RCS_SIZE":"LARGE","TIME_SYSTEM":"UTC","ELEMENT_SET_NO":"999","MEAN_ELEMENT_THEORY":"SGP4","SEMIMAJOR_AXIS":"6887.186","NORAD_CAT_ID":"53870","INCLINATION":"53.2107","ARG_OF_PERICENTER":"95.6227","APOAPSIS":"509.928","PERIOD":"94.803","EPHEMERIS_TYPE":"0","LAUNCH_DATE":"2022-09-19","TLE_LINE1":"1 53870U 22114BE  23045.83334491 -.01144864  00000-0 -58709-1 0  9992","COUNTRY_CODE":"US","EPOCH":"2023-02-14T20:00:01.000224","CENTER_NAME":"EARTH","MEAN_MOTION":"15.18937997","GP_ID":"225460169","RA_OF_ASC_NODE":"246.9362","MEAN_ANOMALY":"201.4500","ECCENTRICITY":"0.00012730","CLASSIFICATION_TYPE":"U","FILE":"3793178","BSTAR":"-0.05870900000000","MEAN_MOTION_DDOT":"0.0000000000000","REF_FRAME":"TEME","SITE":"AFETR","PERIAPSIS":"508.174"},{"SITE":"AFETR","PERIAPSIS":"503.620","FILE":"3793568","BSTAR":"-0.05629200000000","MEAN_MOTION_DDOT":"0.0000000000000","REF_FRAME":"TEME","CENTER_NAME":"EARTH","EPOCH":"2023-02-14T20:00:01.000224","MEAN_MOTION":"15.20476103","GP_ID":"225468664","RA_OF_ASC_NODE":"246.7974","MEAN_ANOMALY":"285.4394","CLASSIFICATION_TYPE":"U","ECCENTRICITY":"0.00011420","COUNTRY_CODE":"US","APOAPSIS":"505.191","PERIOD":"94.707","EPHEMERIS_TYPE":"0","LAUNCH_DATE":"2022-09-19","TLE_LINE1":"1 53871U 22114BF  23045.83334491 -.01147960  00000-0 -56292-1 0  9998","MEAN_ELEMENT_THEORY":"SGP4","SEMIMAJOR_AXIS":"6882.540","NORAD_CAT_ID":"53871","INCLINATION":"53.2126","ARG_OF_PERICENTER":"81.8956","DECAY_DATE":null,"OBJECT_TYPE":"PAYLOAD","RCS_SIZE":"LARGE","TIME_SYSTEM":"UTC","ELEMENT_SET_NO":"999","REV_AT_EPOCH":"2394","OBJECT_NAME":"STARLINK-4740","OBJECT_ID":"2022-114BF","TLE_LINE2":"2 53871  53.2126 246.7974 0001142  81.8956 285.4394 15.20476103 23941","MEAN_MOTION_DOT":"-0.01147960"},{"MEAN_ELEMENT_THEORY":"SGP4","SEMIMAJOR_AXIS":"6917.903","NORAD_CAT_ID":"53886","INCLINATION":"53.2190","ARG_OF_PERICENTER":"82.9808","EPHEMERIS_TYPE":"0","APOAPSIS":"540.425","PERIOD":"95.438","TLE_LINE1":"1 53886U 22119A   23047.89745295 -.00000309  00000-0 -13367-5 0  9999","LAUNCH_DATE":"2022-09-24","OBJECT_ID":"2022-119A","REV_AT_EPOCH":"2308","OBJECT_NAME":"STARLINK-5028","TLE_LINE2":"2 53886  53.2190 297.8242 0000949  82.9808 277.1292 15.08832555 23088","MEAN_MOTION_DOT":"-0.00000309","OBJECT_TYPE":"PAYLOAD","DECAY_DATE":null,"TIME_SYSTEM":"UTC","ELEMENT_SET_NO":"999","RCS_SIZE":"LARGE","FILE":"3799178","REF_FRAME":"TEME","BSTAR":"-0.00000133670000","MEAN_MOTION_DDOT":"0.0000000000000","PERIAPSIS":"539.112","SITE":"AFETR","COUNTRY_CODE":"US","MEAN_MOTION":"15.08832555","GP_ID":"225688322","EPOCH":"2023-02-16T21:32:19.934880","CENTER_NAME":"EARTH","MEAN_ANOMALY":"277.1292","CLASSIFICATION_TYPE":"U","ECCENTRICITY":"0.00009490","RA_OF_ASC_NODE":"297.8242"},{"FILE":"3798293","MEAN_MOTION_DDOT":"0.0000000000000","BSTAR":"0.00002749700000","REF_FRAME":"TEME","SITE":"AFETR","PERIAPSIS":"538.545","COUNTRY_CODE":"US","CENTER_NAME":"EARTH","EPOCH":"2023-02-16T10:08:42.713376","GP_ID":"225643806","MEAN_MOTION":"15.08838809","RA_OF_ASC_NODE":"299.8383","ECCENTRICITY":"0.00017400","CLASSIFICATION_TYPE":"U","MEAN_ANOMALY":"290.3819","SEMIMAJOR_AXIS":"6917.884","NORAD_CAT_ID":"53887","MEAN_ELEMENT_THEORY":"SGP4","ARG_OF_PERICENTER":"69.7361","INCLINATION":"53.2200","PERIOD":"95.438","APOAPSIS":"540.953","EPHEMERIS_TYPE":"0","LAUNCH_DATE":"2022-09-24","TLE_LINE1":"1 53887U 22119B   23047.42271659  .00000150  00000-0  27497-4 0  9997","OBJECT_NAME":"STARLINK-5029","REV_AT_EPOCH":"2301","OBJECT_ID":"2022-119B","MEAN_MOTION_DOT":"0.00000150","TLE_LINE2":"2 53887  53.2200 299.8383 0001740  69.7361 290.3819 15.08838809 23019","DECAY_DATE":null,"OBJECT_TYPE":"PAYLOAD","RCS_SIZE":"LARGE","ELEMENT_SET_NO":"999","TIME_SYSTEM":"UTC"},{"COUNTRY_CODE":"US","GP_ID":"225689322","MEAN_MOTION":"15.08830166","EPOCH":"2023-02-16T21:27:01.563840","CENTER_NAME":"EARTH","CLASSIFICATION_TYPE":"U","ECCENTRICITY":"0.00009030","MEAN_ANOMALY":"304.1312","RA_OF_ASC_NODE":"297.8035","FILE":"3799178","REF_FRAME":"TEME","MEAN_MOTION_DDOT":"0.0000000000000","BSTAR":"-0.00004220900000","PERIAPSIS":"539.151","SITE":"AFETR","OBJECT_ID":"2022-119C","REV_AT_EPOCH":"2308","OBJECT_NAME":"STARLINK-5034","MEAN_MOTION_DOT":"-0.00000959","TLE_LINE2":"2 53888  53.2178 297.8035 0000903  55.9765 304.1312 15.08830166 23088","OBJECT_TYPE":"PAYLOAD","DECAY_DATE":null,"ELEMENT_SET_NO":"999","TIME_SYSTEM":"UTC","RCS_SIZE":"LARGE","MEAN_ELEMENT_THEORY":"SGP4","SEMIMAJOR_AXIS":"6917.910","NORAD_CAT_ID":"53888","ARG_OF_PERICENTER":"55.9765","INCLINATION":"53.2178","EPHEMERIS_TYPE":"0","PERIOD":"95.438","APOAPSIS":"540.400","TLE_LINE1":"1 53888U 22119C   23047.89376810 -.00000959  00000-0 -42209-4 0  9991","LAUNCH_DATE":"2022-09-24"},{"COUNTRY_CODE":"US","EPOCH":"2023-02-16T16:35:34.539936","CENTER_NAME":"EARTH","MEAN_MOTION":"15.08823079","GP_ID":"225688072","RA_OF_ASC_NODE":"298.6720","MEAN_ANOMALY":"285.2341","ECCENTRICITY":"0.00017060","CLASSIFICATION_TYPE":"U","FILE":"3799178","BSTAR":"-0.00011038000000","MEAN_MOTION_DDOT":"0.0000000000000","REF_FRAME":"TEME","SITE":"AFETR","PERIAPSIS":"538.617","OBJECT_NAME":"STARLINK-5031","REV_AT_EPOCH":"2305","OBJECT_ID":"2022-119D","TLE_LINE2":"2 53889  53.2182 298.6720 0001706  74.8840 285.2341 15.08823079 23053","MEAN_MOTION_DOT":"-0.00002044","DECAY_DATE":null,"OBJECT_TYPE":"PAYLOAD","RCS_SIZE":"LARGE","TIME_SYSTEM":"UTC","ELEMENT_SET_NO":"999","MEAN_ELEMENT_THEORY":"SGP4","SEMIMAJOR_AXIS":"6917.932","NORAD_CAT_ID":"53889","ARG_OF_PERICENTER":"74.8840","INCLINATION":"53.2182","APOAPSIS":"540.977","PERIOD":"95.439","EPHEMERIS_TYPE":"0","LAUNCH_DATE":"2022-09-24","TLE_LINE1":"1 53889U 22119D   23047.69137199 -.00002044  00000-0 -11038-3 0  9997"},{"SITE":"AFETR","PERIAPSIS":"529.085","FILE":"3792130","MEAN_MOTION_DDOT":"0.0000000000000","BSTAR":"-0.05787000000000","REF_FRAME":"TEME","CENTER_NAME":"EARTH","EPOCH":"2023-02-14T20:00:01.000224","GP_ID":"225437565","MEAN_MOTION":"15.12013499","RA_OF_ASC_NODE":"271.6272","ECCENTRICITY":"0.00014140","CLASSIFICATION_TYPE":"U","MEAN_ANOMALY":"115.3979","COUNTRY_CODE":"US","PERIOD":"95.237","APOAPSIS":"531.039","EPHEMERIS_TYPE":"0","LAUNCH_DATE":"2022-09-24","TLE_LINE1":"1 53890U 22119E   23045.83334491 -.00929502  00000-0 -57870-1 0  9996","SEMIMAJOR_AXIS":"6908.197","NORAD_CAT_ID":"53890","MEAN_ELEMENT_THEORY":"SGP4","ARG_OF_PERICENTER":"85.1188","INCLINATION":"53.2113","DECAY_DATE":null,"OBJECT_TYPE":"PAYLOAD","RCS_SIZE":"LARGE","ELEMENT_SET_NO":"999","TIME_SYSTEM":"UTC","REV_AT_EPOCH":"2284","OBJECT_NAME":"STARLINK-5050","OBJECT_ID":"2022-119E","MEAN_MOTION_DOT":"-0.00929502","TLE_LINE2":"2 53890  53.2113 271.6272 0001414  85.1188 115.3979 15.12013499 22846"},{"OBJECT_ID":"2022-119F","OBJECT_NAME":"STARLINK-5041","REV_AT_EPOCH":"2301","MEAN_MOTION_DOT":"0.00000739","TLE_LINE2":"2 53891  53.2190 299.8131 0001329  62.6416 297.4711 15.08839103 23016","OBJECT_TYPE":"PAYLOAD","DECAY_DATE":null,"ELEMENT_SET_NO":"999","TIME_SYSTEM":"UTC","RCS_SIZE":"LARGE","SEMIMAJOR_AXIS":"6917.883","MEAN_ELEMENT_THEORY":"SGP4","NORAD_CAT_ID":"53891","ARG_OF_PERICENTER":"62.6416","INCLINATION":"53.2190","EPHEMERIS_TYPE":"0","PERIOD":"95.438","APOAPSIS":"540.668","TLE_LINE1":"1 53891U 22119F   23047.41903130  .00000739  00000-0  64508-4 0  9994","LAUNCH_DATE":"2022-09-24","COUNTRY_CODE":"US","GP_ID":"225643306","MEAN_MOTION":"15.08839103","EPOCH":"2023-02-16T10:03:24.304320","CENTER_NAME":"EARTH","CLASSIFICATION_TYPE":"U","ECCENTRICITY":"0.00013290","MEAN_ANOMALY":"297.4711","RA_OF_ASC_NODE":"299.8131","FILE":"3798293","REF_FRAME":"TEME","MEAN_MOTION_DDOT":"0.0000000000000","BSTAR":"0.00006450800000","PERIAPSIS":"538.829","SITE":"AFETR"},{"PERIAPSIS":"541.496","SITE":"AFETR","REF_FRAME":"TEME","BSTAR":"0.00133790000000","MEAN_MOTION_DDOT":"0.0000000000000","FILE":"3799178","MEAN_ANOMALY":"260.9522","CLASSIFICATION_TYPE":"U","ECCENTRICITY":"0.00010940","RA_OF_ASC_NODE":"297.1984","MEAN_MOTION":"15.08020107","GP_ID":"225688822","CENTER_NAME":"EARTH","EPOCH":"2023-02-16T21:50:02.679936","COUNTRY_CODE":"US","TLE_LINE1":"1 53892U 22119G   23047.90975324  .00020597  00000-0  13379-2 0  9995","LAUNCH_DATE":"2022-09-24","EPHEMERIS_TYPE":"0","APOAPSIS":"543.010","PERIOD":"95.489","ARG_OF_PERICENTER":"99.1594","INCLINATION":"53.2186","NORAD_CAT_ID":"53892","SEMIMAJOR_AXIS":"6920.388","MEAN_ELEMENT_THEORY":"SGP4","TIME_SYSTEM":"UTC","ELEMENT_SET_NO":"999","RCS_SIZE":"LARGE","OBJECT_TYPE":"PAYLOAD","DECAY_DATE":null,"TLE_LINE2":"2 53892  53.2186 297.1984 0001094  99.1594 260.9522 15.08020107 23099","MEAN_MOTION_DOT":"0.00020597","OBJECT_ID":"2022-119G","OBJECT_NAME":"STARLINK-5046","REV_AT_EPOCH":"2309"}];
